KUIPER-00175            
1 67135U 25301C   26064.34472056  .00020328  00000+0  68341-3 0  9991
2 67135  51.8759  85.8896 0002132  34.9400 325.1724 15.30791713 13141
KUIPER-00179            
1 67136U 25301D   26064.75001156 -.01914135  00000+0 -11381+0 0  9995
2 67136  51.8819  85.0928 0002290  76.0195 164.2489 15.14363536  5736
KUIPER-00181            
1 67137U 25301E   26064.75001156 -.00032140  00000+0 -45721-2 0  9990
2 67137  51.9007  94.4241 0001927  85.7671  54.1875 14.76418278  5390
KUIPER-00183            
1 67138U 25301F   26064.75001156 -.01105970  00000+0 -38788-1 0  9998
2 67138  51.8657  84.9448 0014915  38.6068 210.4242 15.31640567  5577
KUIPER-00184            
1 67139U 25301G   26064.22110800  .00043949  00000+0  11905-2 0  9995
2 67139  51.8617  87.2132 0012398  34.4952 325.6837 15.37154182 13329
KUIPER-00186            
1 67140U 25301H   26064.52622436  .00014352  00000+0  19056-2 0  9994
2 67140  51.9022  96.5220 0000625 107.3495 252.7535 14.79977827 12941
KUIPER-00187            
1 67141U 25301J   26064.25331144 -.00005985  00000+0 -75641-3 0  9995
2 67141  51.9018 100.2399 0000674  95.6772 264.4268 14.79948764 12860
KUIPER-00188            
1 67142U 25301K   26064.32351322  .00049679  00000+0  13133-2 0  9997
2 67142  51.8688  86.4563 0010313  30.0208 330.1368 15.37876142 13069
KUIPER-00191            
1 67143U 25301L   26064.75001156 -.00050486  00000+0 -61034-2 0  9995
2 67143  51.8997  90.6415 0006834  50.1931 173.2998 14.83437104  4960
KUIPER-00196            
1 67144U 25301M   26064.34439602  .00048980  00000+0  12661-2 0  9998
2 67144  51.8700  85.8732 0003784   9.9788 350.1274 15.38615916 13079
KUIPER-00204            
1 67145U 25301N   26064.53376241  .00030475  00000+0  11787-2 0  9997
2 67145  51.8847  90.0007 0003051 332.4510  27.6310 15.25954009 13149
KUIPER-00210            
1 67146U 25301P   26064.75001156 -.00038030  00000+0 -45114-2 0  9990
2 67146  51.8986  90.6419 0010227  60.8697 323.4542 14.84055218  5635
KUIPER-00221            
1 67147U 25301Q   26064.08448849  .00004942  00000+0  67593-3 0  9990
2 67147  51.9008 100.9697 0000612 107.2753 252.8276 14.79985190 12846
KUIPER-00232            
1 67148U 25301R   26064.75001156 -.01875643  00000+0 -10772+0 0  9991
2 67148  51.8816  84.9257 0003510 140.5733 119.3241 15.15499752  5356
KUIPER-00241            
1 67149U 25301S   26064.75001156 -.00053065  00000+0 -69703-2 0  9998
2 67149  51.9011  93.0320 0001037 107.8638 171.8156 14.80031482  5754
KUIPER-00245            
1 67150U 25301T   26064.08179257 -.00001821  00000+0 -20996-3 0  9999
2 67150  51.9025 103.5032 0000525  66.5774 293.5243 14.79932036 12807
KUIPER-00246            
1 67151U 25301U   26064.75001156 -.01121720  00000+0 -80767-1 0  9998
2 67151  51.9019  86.3742 0004928  54.4772 278.3921 15.06772761  5930
